KUIPER-00061            
1 64521U 25134X   26002.75002314  .00000024  00000+0  32171-4 0  9998
2 64521  51.8983 159.6714 0000999  74.1313  50.9042 14.79928814  5337
KUIPER-00062            
1 64522U 25134Y   26002.74655775  .00006128  00000+0  73546-3 0  9994
2 64522  51.8945 163.8863 0007483  76.0249 284.1548 14.85121314 30328
KUIPER-00063            
1 64523U 25134Z   26002.64822285  .00005193  00000+0  70943-3 0  9995
2 64523  51.8997 170.1202 0000275 134.1479 225.9506 14.79944170 30229
KUIPER-00064            
1 64524U 25134AA  26002.65085913 -.00000650  00000+0 -55991-4 0  9998
2 64524  51.9022 167.5281 0007332 132.1999 227.9587 14.79951626 30262
KUIPER-00065            
1 64525U 25134AB  26002.75002314 -.00019880  00000+0 -25662-2 0  9999
2 64525  51.9003 172.2467 0008500  69.4215 126.3630 14.80228692  5087
KUIPER-00066            
1 64526U 25134AC  26002.66173274  .00023024  00000+0  10212-2 0  9992
2 64526  51.8920 136.0084 0000638 348.9512  11.1454 15.21487157 30708
KUIPER-00069            
1 64816U 25151A   26002.73731233  .00005622  00000+0  76522-3 0  9997
2 64816  51.9009 212.2529 0003999  79.1307 281.0105 14.79969372 26991
KUIPER-00070            
1 64817U 25151B   26002.67657760  .00006867  00000+0  92814-3 0  9997
2 64817  51.8994 237.4751 0011368  39.7442 320.4351 14.79936768 26647
